LEMUR-1                 
1 40044U 14033AL  26196.65572107  .00000803  00000+0  97956-4 0  9990
2 40044  97.7909 345.8349 0047700 346.3924  13.6002 14.85337798649691
LEMUR-2-GREENBERG       
1 42837U 17042N   26196.43877540  .00009578  00000+0  31071-3 0  9993
2 42837  97.3827  16.9516 0007218 258.2727 101.7705 15.32157296492716
LEMUR-2-ANDIS           
1 42838U 17042P   26196.46613906  .00012423  00000+0  35705-3 0  9992
2 42838  97.3678  17.2650 0007208 256.6782 103.3658 15.35931248492799
LEMUR-2-MONSON          
1 42839U 17042Q   26196.44397697  .00007794  00000+0  28139-3 0  9995
2 42839  97.4088  16.8855 0005312 243.8770 116.1924 15.28756143492482
LEMUR-2-FURIAUS         
1 42840U 17042R   26196.45186691  .00010036  00000+0  33596-3 0  9994
2 42840  97.3774  14.8562 0006060 329.0574  31.0309 15.31136141492530
LEMUR-2-PETERG          
1 42841U 17042S   26196.46717169  .00011331  00000+0  33555-3 0  9990
2 42841  97.3989  21.5676 0003313 218.5823 141.5184 15.35034872492773
LEMUR-2-DEMBITZ         
1 42842U 17042T   26196.47161280  .00008871  00000+0  29756-3 0  9992
2 42842  97.3825  17.9201 0005052 273.6984  86.3679 15.31114268492676
LEMUR-2-ZACHARY         
1 42845U 17042W   26196.56779326  .00035477  00000+0  57411-3 0  9992
2 42845  97.3566  28.8574 0002547 243.6817 116.4174 15.52741253493605
LEMUR-2-AMANDA-SVANTE   
1 48269U 21034B   26196.19019208  .00019638  00000+0  56242-3 0  9991
2 48269  97.5753 275.2472 0004593 143.0554 217.1007 15.35959572285351
LEMUR-2-SPECIAL-K       
1 48273U 21034F   26196.20642278  .00180994  00000+0  12117-2 0  9993
2 48273  97.5637 285.3000 0006360 214.5066 145.5786 15.74724524286081
LEMUR-2-EMBRIONOVIS     
1 56970U 23084AQ  26196.37513585  .00008068  00000+0  21630-3 0  9991
2 56970  97.6315 341.6746 0008324 205.3093 154.7745 15.38233354172011
LEMUR-2-DEVERILL-M-T    
1 57391U 23100F   26196.36070051  .00015150  00000+0  36873-3 0  9998
2 57391  99.4452 243.2865 0004665 296.5349  63.5413 15.41097140165588
LEMUR-2-BASS            
1 58259U 23174D   26196.47499585  .00010374  00000+0  22930-3 0  9994
2 58259  97.3849 281.6000 0007671  77.5243 282.6863 15.44000204149725
LEMUR-2-JK0903EM1407    
1 58336U 23174CJ  26196.24779787  .00016884  00000+0  27143-3 0  9993
2 58336  97.3926 287.5371 0003608  33.3492 326.7988 15.53070954150083
LEMUR-2-MJR092620       
1 58340U 23174CN  26196.45484655  .00012505  00000+0  25918-3 0  9992
2 58340  97.3979 287.0240 0005264  29.8234 330.3314 15.45870396150016
LEMUR-2-NIMBUS2000      
1 58899U 24022A   26196.52823365  .00014134  00000+0  34278-3 0  9996
2 58899  97.4076  46.9039 0008719  27.8272 332.3439 15.41126431136632
LEMUR-2-VALHALLA        
1 58900U 24022B   26196.53322804  .00010013  00000+0  24866-3 0  9996
2 58900  97.4075  46.8786 0009180  23.0529 337.1127 15.40495238136638
LEMUR-2-CAEL            
1 58903U 24022E   26196.51853263  .00011187  00000+0  26543-3 0  9992
2 58903  97.4056  47.8506 0007093   8.4188 351.7176 15.41863619136707
LEMUR-2-JOHNNYTRUONG    
1 59146U 24043BA  26196.47405403  .00029938  00000+0  33624-3 0  9990
2 59146  97.5393 349.9778 0004048  92.9286 267.2436 15.62579202132456
LEMUR-2-TOMATOKECHUP    
1 60471U 24149D   26196.17962130  .00006176  00000+0  17522-3 0  9990
2 60471  97.3800 278.3072 0003289 122.7219 237.4342 15.36582532106464
LEMUR-2-STELLA          
1 60533U 24149BT  26196.20606626  .00005294  00000+0  30901-3 0  9994
2 60533  97.6739 278.7937 0001256 118.1289 242.0069 15.12370873104732
LEMUR-2-MARHISYAM       
1 60536U 24149BW  26196.19698192  .00005541  00000+0  32856-3 0  9990
2 60536  97.6880 279.2612 0002432  69.9876 290.1615 15.11777556104717
LEMUR-2-AHMED-ASRAR     
1 60576U 24149DN  26196.20348816  .00006140  00000+0  34861-3 0  9995
2 60576  97.7005 281.4708 0001208 204.9681 155.1492 15.13306378104802
LEMUR-2-LLOYD           
1 60577U 24149DP  26196.21490499  .00004980  00000+0  31253-3 0  9994
2 60577  97.6749 277.3675 0004801  72.5091 287.6662 15.09751419104625
LEMUR-2-SQUIRRELCOMM    
1 60578U 24149DQ  26196.20354443  .00002350  00000+0  15924-3 0  9998
2 60578  97.6712 277.0310 0004079 328.0641  32.0338 15.07446762104628
LEMUR-2-SIERRINI        
1 60579U 24149DR  26196.22587283  .00005863  00000+0  34982-3 0  9998
2 60579  97.6846 278.9516 0006501  90.5285 269.6690 15.11513464104697
LEMUR-2-WILSON          
1 62694U 25009CP  26196.46951901  .00000686  00000+0  67500-4 0  9993
2 62694  97.7021 274.4385 0002001 323.4176  36.6908 14.95276897 81589
LEMUR-2-STAR-FOX        
1 62696U 25009CR  26196.19343779  .00003389  00000+0  25750-3 0  9996
2 62696  97.6910 277.6011 0002230  42.2446 317.8950 15.02840720 81760
LEMUR-2-ARIANNA         
1 62699U 25009CU  26196.19190453  .00003648  00000+0  27680-3 0  9990
2 62699  97.6852 277.3518 0002559  48.8550 311.2895 15.02842721 81768
LEMUR-2-ALISIA          
1 62706U 25009DB  26196.16427265  .00004406  00000+0  33038-3 0  9997
2 62706  97.6973 278.1493 0004295 129.2590 230.9017 15.03175424104364
